{"type": "FeatureCollection", "features": [ {"type": "Feature", "properties": {"norad_id": 66650, "name": "BEE-1000", "group": "last-30-days", "lat": 17.13817686135669, "lon": -90.96267697392916, "alt_km": 596.5321661823127, "timestamp": "2025-12-10T04:57:28.367365+00:00", "meta": {"OBJECT_NAME": "BEE-1000", "OBJECT_ID": "2025-274A", "EPOCH": "2025-12-09T17:36:38.916000", "MEAN_MOTION": 14.9164457, "ECCENTRICITY": 0.0010439, "INCLINATION": 97.7385, "RA_OF_ASC_NODE": 270.9766, "ARG_OF_PERICENTER": 263.1107, "MEAN_ANOMALY": 96.8924, "EPHEMERIS_TYPE": 0, "CLASSIFICATION_TYPE": "U", "NORAD_CAT_ID": 66650, "ELEMENT_SET_NO": 999, "REV_AT_EPOCH": 195, "BSTAR": 0.00029143, "MEAN_MOTION_DOT": 2.875e-05, "MEAN_MOTION_DDOT": 0}, "tle": {"line1": "1 66650U 25274A   25343.73378375  .00002875  00000+0  29143-3 0  9996", "line2": "2 66650  97.7385 270.9766 0010439 263.1107  96.8924 14.91644570  1952"}}, "geometry": {"type": "Point", "coordinates": [-90.96267697392916, 17.13817686135669]}}, {"type": "Feature", "properties": {"norad_id": 66651, "name": "2025-274B", "group": "last-30-days", "lat": 20.902113513586, "lon": -91.5351643265256, "alt_km": 596.1974262521398, "timestamp": "2025-12-10T04:57:28.367375+00:00", "meta": {"OBJECT_NAME": "2025-274B", "OBJECT_ID": "2025-274B", "EPOCH": "2025-12-09T17:35:40.877664", "MEAN_MOTION": 14.91760107, "ECCENTRICITY": 0.001074, "INCLINATION": 97.7381, "RA_OF_ASC_NODE": 270.9768, "ARG_OF_PERICENTER": 262.2658, "MEAN_ANOMALY": 97.7341, "EPHEMERIS_TYPE": 0, "CLASSIFICATION_TYPE": "U", "NORAD_CAT_ID": 66651, "ELEMENT_SET_NO": 999, "REV_AT_EPOCH": 195, "BSTAR": 0.0006145, "MEAN_MOTION_DOT": 6.145e-05, "MEAN_MOTION_DDOT": 0}, "tle": {"line1": "1 66651U 25274B   25343.73311201  .00006145  00000+0  61450-3 0  9993", "line2": "2 66651  97.7381 270.9768 0010740 262.2658  97.7341 14.91760107  1955"}}, "geometry": {"type": "Point", "coordinates": [-91.5351643265256, 20.902113513586]}}, {"type": "Feature", "properties": {"norad_id": 66652, "name": "2025-274C", "group": "last-30-days", "lat": 27.583188668929623, "lon": -92.62848766305626, "alt_km": 594.624295280667, "timestamp": "2025-12-10T04:57:28.367386+00:00", "meta": {"OBJECT_NAME": "2025-274C", "OBJECT_ID": "2025-274C", "EPOCH": "2025-12-09T12:44:10.519584", "MEAN_MOTION": 14.91874076, "ECCENTRICITY": 0.0010407, "INCLINATION": 97.7387, "RA_OF_ASC_NODE": 270.7817, "ARG_OF_PERICENTER": 269.9894, "MEAN_ANOMALY": 90.0132, "EPHEMERIS_TYPE": 0, "CLASSIFICATION_TYPE": "U", "NORAD_CAT_ID": 66652, "ELEMENT_SET_NO": 999, "REV_AT_EPOCH": 192, "BSTAR": 0.00037452, "MEAN_MOTION_DOT": 3.732e-05, "MEAN_MOTION_DDOT": 0}, "tle": {"line1": "1 66652U 25274C   25343.53067731  .00003732  00000+0  37452-3 0  9992", "line2": "2 66652  97.7387 270.7817 0010407 269.9894  90.0132 14.91874076  1923"}}, "geometry": {"type": "Point", "coordinates": [-92.62848766305626, 27.583188668929623]}}, {"type": "Feature", "properties": {"norad_id": 66653, "name": "2025-274D", "group": "last-30-days", "lat": 27.907882470436935, "lon": -92.68519420181725, "alt_km": 595.3757192939229, "timestamp": "2025-12-10T04:57:28.367396+00:00", "meta": {"OBJECT_NAME": "2025-274D", "OBJECT_ID": "2025-274D", "EPOCH": "2025-12-09T12:44:05.312256", "MEAN_MOTION": 14.91878474, "ECCENTRICITY": 0.001128, "INCLINATION": 97.7386, "RA_OF_ASC_NODE": 270.7814, "ARG_OF_PERICENTER": 265.8961, "MEAN_ANOMALY": 94.0969, "EPHEMERIS_TYPE": 0, "CLASSIFICATION_TYPE": "U", "NORAD_CAT_ID": 66653, "ELEMENT_SET_NO": 999, "REV_AT_EPOCH": 192, "BSTAR": 0.00038978, "MEAN_MOTION_DOT": 3.888e-05, "MEAN_MOTION_DDOT": 0}, "tle": {"line1": "1 66653U 25274D   25343.53061704  .00003888  00000+0  38978-3 0  9993", "line2": "2 66653  97.7386 270.7814 0011280 265.8961  94.0969 14.91878474  1928"}}, "geometry": {"type": "Point", "coordinates": [-92.68519420181725, 27.907882470436935]}}, {"type": "Feature", "properties": {"norad_id": 66654, "name": "JACK E", "group": "last-30-days", "lat": 35.901115200407176, "lon": -94.20043242782853, "alt_km": 594.5073902640033, "timestamp": "2025-12-10T04:57:28.367406+00:00", "meta": {"OBJECT_NAME": "JACK E", "OBJECT_ID": "2025-274E", "EPOCH": "2025-12-09T09:28:53.341248", "MEAN_MOTION": 14.9205262, "ECCENTRICITY": 0.00118648, "INCLINATION": 97.7388, "RA_OF_ASC_NODE": 270.6521, "ARG_OF_PERICENTER": 268.0515, "MEAN_ANOMALY": 91.9345, "EPHEMERIS_TYPE": 0, "CLASSIFICATION_TYPE": "U", "NORAD_CAT_ID": 66654, "ELEMENT_SET_NO": 999, "REV_AT_EPOCH": 190, "BSTAR": 0.00043977089, "MEAN_MOTION_DOT": 4.414e-05, "MEAN_MOTION_DDOT": 0}, "tle": {"line1": "1 66654U 25274E   25343.39506182  .00004414  00000+0  43977-3 0  9993", "line2": "2 66654  97.7388 270.6521 0011864 268.0515  91.9345 14.92052620  1903"}}, "geometry": {"type": "Point", "coordinates": [-94.20043242782853, 35.901115200407176]}}, {"type": "Feature", "properties": {"norad_id": 66655, "name": "2025-274F", "group": "last-30-days", "lat": 47.76247178344928, "lon": -97.15573318302262, "alt_km": 585.721662893955, "timestamp": "2025-12-10T04:57:28.367418+00:00", "meta": {"OBJECT_NAME": "2025-274F", "OBJECT_ID": "2025-274F", "EPOCH": "2025-12-08T18:57:10.718496", "MEAN_MOTION": 14.92504145, "ECCENTRICITY": 0.00054909, "INCLINATION": 97.7329, "RA_OF_ASC_NODE": 270.0601, "ARG_OF_PERICENTER": 323.8556, "MEAN_ANOMALY": 36.2292, "EPHEMERIS_TYPE": 0, "CLASSIFICATION_TYPE": "U", "NORAD_CAT_ID": 66655, "ELEMENT_SET_NO": 999, "REV_AT_EPOCH": 181, "BSTAR": 0.001516128, "MEAN_MOTION_DOT": 0.00015539, "MEAN_MOTION_DDOT": 0}, "tle": {"line1": "1 66655U 25274F   25342.78970739  .00015539  00000+0  15161-2 0  9992", "line2": "2 66655  97.7329 270.0601 0005490 323.8556  36.2292 14.92504145  1812"}}, "geometry": {"type": "Point", "coordinates": [-97.15573318302262, 47.76247178344928]}}, {"type": "Feature", "properties": {"norad_id": 66656, "name": "2025-274G", "group": "last-30-days", "lat": 44.6479176227378, "lon": -96.26691578327316, "alt_km": 593.6438339780343, "timestamp": "2025-12-10T04:57:28.367430+00:00", "meta": {"OBJECT_NAME": "2025-274G", "OBJECT_ID": "2025-274G", "EPOCH": "2025-12-09T17:29:26.764800", "MEAN_MOTION": 14.92244035, "ECCENTRICITY": 0.0012484, "INCLINATION": 97.7385, "RA_OF_ASC_NODE": 270.9831, "ARG_OF_PERICENTER": 268.558, "MEAN_ANOMALY": 91.4209, "EPHEMERIS_TYPE": 0, "CLASSIFICATION_TYPE": "U", "NORAD_CAT_ID": 66656, "ELEMENT_SET_NO": 999, "REV_AT_EPOCH": 195, "BSTAR": 0.00047846, "MEAN_MOTION_DOT": 4.831e-05, "MEAN_MOTION_DDOT": 0}, "tle": {"line1": "1 66656U 25274G   25343.72878200  .00004831  00000+0  47846-3 0  9997", "line2": "2 66656  97.7385 270.9831 0012484 268.5580  91.4209 14.92244035  1957"}}, "geometry": {"type": "Point", "coordinates": [-96.26691578327316, 44.6479176227378]}}, {"type": "Feature", "properties": {"norad_id": 66657, "name": "SPIRONE", "group": "last-30-days", "lat": 53.181666614715546, "lon": -99.010565005095, "alt_km": 590.0787299201074, "timestamp": "2025-12-10T04:57:28.367441+00:00", "meta": {"OBJECT_NAME": "SPIRONE", "OBJECT_ID": "2025-274H", "EPOCH": "2025-12-08T20:32:05.028864", "MEAN_MOTION": 14.92414576, "ECCENTRICITY": 0.0010976, "INCLINATION": 97.7386, "RA_OF_ASC_NODE": 270.128, "ARG_OF_PERICENTER": 290.7866, "MEAN_ANOMALY": 69.2177, "EPHEMERIS_TYPE": 0, "CLASSIFICATION_TYPE": "U", "NORAD_CAT_ID": 66657, "ELEMENT_SET_NO": 999, "REV_AT_EPOCH": 182, "BSTAR": 0.00036917, "MEAN_MOTION_DOT": 3.729e-05, "MEAN_MOTION_DDOT": 0}, "tle": {"line1": "1 66657U 25274H   25342.85561376  .00003729  00000+0  36917-3 0  9996", "line2": "2 66657  97.7386 270.1280 0010976 290.7866  69.2177 14.92414576  1829"}}, "geometry": {"type": "Point", "coordinates": [-99.010565005095, 53.181666614715546]}}, {"type": "Feature", "properties": {"norad_id": 66658, "name": "2025-274J", "group": "last-30-days", "lat": 61.414143329530724, "lon": -102.99150535444623, "alt_km": 589.3922548166993, "timestamp": "2025-12-10T04:57:28.367453+00:00", "meta": {"OBJECT_NAME": "2025-274J", "OBJECT_ID": "2025-274J", "EPOCH": "2025-12-09T14:11:55.777056", "MEAN_MOTION": 14.92594221, "ECCENTRICITY": 0.001152, "INCLINATION": 97.7384, "RA_OF_ASC_NODE": 270.8551, "ARG_OF_PERICENTER": 291.0278, "MEAN_ANOMALY": 68.9708, "EPHEMERIS_TYPE": 0, "CLASSIFICATION_TYPE": "U", "NORAD_CAT_ID": 66658, "ELEMENT_SET_NO": 999, "REV_AT_EPOCH": 193, "BSTAR": 0.00044076, "MEAN_MOTION_DOT": 4.485e-05, "MEAN_MOTION_DDOT": 0}, "tle": {"line1": "1 66658U 25274J   25343.59161779  .00004485  00000+0  44076-3 0  9997", "line2": "2 66658  97.7384 270.8551 0011520 291.0278  68.9708 14.92594221  1937"}}, "geometry": {"type": "Point", "coordinates": [-102.99150535444623, 61.414143329530724]}}, {"type": "Feature", "properties": {"norad_id": 66659, "name": "JACK K", "group": "last-30-days", "lat": 69.94518218387132, "lon": -110.40641738641237, "alt_km": 589.157453611012, "timestamp": "2025-12-10T04:57:28.367463+00:00", "meta": {"OBJECT_NAME": "JACK K", "OBJECT_ID": "2025-274K", "EPOCH": "2025-12-09T14:09:36.881280", "MEAN_MOTION": 14.92780033, "ECCENTRICITY": 0.0012272, "INCLINATION": 97.7386, "RA_OF_ASC_NODE": 270.8575, "ARG_OF_PERICENTER": 292.2179, "MEAN_ANOMALY": 67.7739, "EPHEMERIS_TYPE": 0, "CLASSIFICATION_TYPE": "U", "NORAD_CAT_ID": 66659, "ELEMENT_SET_NO": 999, "REV_AT_EPOCH": 193, "BSTAR": 0.00043144, "MEAN_MOTION_DOT": 4.41e-05, "MEAN_MOTION_DDOT": 0}, "tle": {"line1": "1 66659U 25274K   25343.59001020  .00004410  00000+0  43144-3 0  9993", "line2": "2 66659  97.7386 270.8575 0012272 292.2179  67.7739 14.92780033  1933"}}, "geometry": {"type": "Point", "coordinates": [-110.40641738641237, 69.94518218387132]}}]}